NORAD_CAT_ID,OBJECT_NAME,OBJECT_TYPE,EPOCH,MEAN_MOTION,ECCENTRICITY,INCLINATION,RA_OF_ASC_NODE,ARG_OF_PERICENTER,MEAN_ANOMALY,BSTAR,MEAN_MOTION_DOT,MEAN_MOTION_DDOT,TLE_LINE0,TLE_LINE1,TLE_LINE2,SEMIMAJOR_AXIS,PERIOD,APOGEE,PERIGEE,DECAYED
55753.0,STARLINK-5617,PAYLOAD,2024-04-02 18:53:47,14.98335985,0.0003032,70.0009,224.2527,271.2174,88.8638,5.6577e-05,5.82e-06,0.0,0 STARLINK-5617,1 55753U 23028N   24093.78735725  .00000582  00000-0  56577-4 0  9991,2 55753  70.0009 224.2527 0003032 271.2174  88.8638 14.98335985 60304,6950.174,96.107,574.147,569.932,0.0
55753.0,STARLINK-5617,PAYLOAD,2024-04-03 12:31:16,14.98329147,0.0003005,70.0009,222.4013,271.2344,88.847,8.6435e-05,9.38e-06,0.0,0 STARLINK-5617,1 55753U 23028N   24094.52172050  .00000938  00000-0  86435-4 0  9991,2 55753  70.0009 222.4013 0003005 271.2344  88.8470 14.98329147 60412,6950.196,96.107,574.149,569.972,0.0
55753.0,STARLINK-5617,PAYLOAD,2024-04-03 18:55:48,14.98331396,0.0003017,70.0009,221.728,271.3589,88.7224,8.6549e-05,9.4e-06,0.0,0 STARLINK-5617,1 55753U 23028N   24094.78875898  .00000940  00000-0  86549-4 0  9998,2 55753  70.0009 221.7280 0003017 271.3589  88.7224 14.98331396 60454,6950.189,96.107,574.15,569.957,0.0
55753.0,STARLINK-5617,PAYLOAD,2024-04-04 12:33:18,14.98326917,0.0002941,70.0011,219.8772,268.395,91.6872,-8.2401e-05,-1.076e-05,0.0,0 STARLINK-5617,1 55753U 23028N   24095.52312628 -.00001076  00000-0 -82401-4 0  9994,2 55753  70.0011 219.8772 0002941 268.3950  91.6872 14.98326917 60561,6950.202,96.107,574.111,570.023,0.0
55753.0,STARLINK-5617,PAYLOAD,2024-04-04 14:09:26,14.9832498,0.0002926,70.0012,219.7086,267.9882,92.0942,-6.7988e-05,-9.04e-06,0.0,0 STARLINK-5617,1 55753U 23028N   24095.58988717 -.00000904  00000-0 -67988-4 0  9990,2 55753  70.0012 219.7086 0002926 267.9882  92.0942 14.98324980 60573,6950.208,96.107,574.107,570.04,0.0
55753.0,STARLINK-5617,PAYLOAD,2024-04-04 18:57:50,14.98327911,0.0002871,70.0012,219.2036,266.9143,93.1688,-3.957e-05,-5.65e-06,0.0,0 STARLINK-5617,1 55753U 23028N   24095.79016475 -.00000565  00000-0 -39570-4 0  9995,2 55753  70.0012 219.2036 0002871 266.9143  93.1688 14.98327911 60601,6950.199,96.107,574.06,570.069,0.0
55753.0,STARLINK-5617,PAYLOAD,2024-04-05 01:22:21,14.9833735,0.0002967,70.0012,218.5308,267.6709,92.4111,-7.1209e-05,-9.43e-06,0.0,0 STARLINK-5617,1 55753U 23028N   24096.05719889 -.00000943  00000-0 -71209-4 0  9999,2 55753  70.0012 218.5308 0002967 267.6709  92.4111 14.98337350 60642,6950.17,96.107,574.097,569.973,0.0
55753.0,STARLINK-5617,PAYLOAD,2024-04-05 14:11:25,14.98340449,0.0002984,70.0009,217.1839,268.1287,91.9531,0.00010484,1.158e-05,0.0,0 STARLINK-5617,1 55753U 23028N   24096.59127028  .00001158  00000-0  10484-3 0  9990,2 55753  70.0009 217.1839 0002984 268.1287  91.9531 14.98340449 60720,6950.161,96.106,574.1,569.952,0.0
55753.0,STARLINK-5617,PAYLOAD,2024-04-05 17:23:41,14.98341833,0.0002953,70.001,216.8473,268.1605,91.9216,0.00011976,1.337e-05,0.0,0 STARLINK-5617,1 55753U 23028N   24096.72478826  .00001337  00000-0  11976-3 0  9996,2 55753  70.0010 216.8473 0002953 268.1605  91.9216 14.98341833 60742,6950.156,96.106,574.074,569.969,0.0
55753.0,STARLINK-5617,PAYLOAD,2024-04-06 01:24:22,14.98330685,0.0002375,70.0028,216.005,278.3116,81.7773,2.0892e-05,1.56e-06,0.0,0 STARLINK-5617,1 55753U 23028N   24097.05859910  .00000156  00000-0  20892-4 0  9996,2 55753  70.0028 216.0050 0002375 278.3116  81.7773 14.98330685 60795,6950.191,96.107,573.706,570.405,0.0
55753.0,STARLINK-5617,PAYLOAD,2024-04-06 14:13:27,14.98322876,0.0002868,70.0005,214.6567,272.3747,87.7084,-5.0859e-06,-1.54e-06,0.0,0 STARLINK-5617,1 55753U 23028N   24097.59268372 -.00000154  00000-0 -50859-5 0  9998,2 55753  70.0005 214.6567 0002868 272.3747  87.7084 14.98322876 60871,6950.215,96.107,574.073,570.087,0.0
55753.0,STARLINK-5617,PAYLOAD,2024-04-06 17:25:44,14.98320992,0.0003052,70.0,214.3212,272.3051,87.7758,-4.5574e-05,-6.37e-06,0.0,0 STARLINK-5617,1 55753U 23028N   24097.72620632 -.00000637  00000-0 -45574-4 0  9997,2 55753  70.0000 214.3212 0003052 272.3051  87.7758 14.98320992 60891,6950.221,96.108,574.207,569.965,0.0
55753.0,STARLINK-5617,PAYLOAD,2024-04-07 09:27:04,14.98330902,0.0002976,70.0004,212.6356,272.5809,87.501,-3.6213e-05,-5.25e-06,0.0,0 STARLINK-5617,1 55753U 23028N   24098.39380062 -.00000525  00000-0 -36213-4 0  9997,2 55753  70.0004 212.6356 0002976 272.5809  87.5010 14.98330902 60994,6950.19,96.107,574.123,569.987,0.0
55753.0,STARLINK-5617,PAYLOAD,2024-04-07 14:15:28,14.98336768,0.0003178,70.0005,212.1341,272.0883,87.9912,-3.4588e-05,-5.06e-06,0.0,0 STARLINK-5617,1 55753U 23028N   24098.59407673 -.00000506  00000-0 -34588-4 0  9999,2 55753  70.0005 212.1341 0003178 272.0883  87.9912 14.98336768 61022,6950.172,96.107,574.246,569.828,0.0
55753.0,STARLINK-5617,PAYLOAD,2024-04-07 17:27:44,14.98336221,0.0003115,70.0004,211.7973,272.2288,87.8514,-3.59e-05,-5.21e-06,0.0,0 STARLINK-5617,1 55753U 23028N   24098.72759673 -.00000521  00000-0 -35900-4 0  9990,2 55753  70.0004 211.7973 0003115 272.2288  87.8514 14.98336221 61042,6950.174,96.107,574.204,569.874,0.0
55753.0,STARLINK-5617,PAYLOAD,2024-04-08 09:29:05,14.9832628,0.0003157,70.0008,210.1143,274.8095,85.2704,0.00012772,1.431e-05,0.0,0 STARLINK-5617,1 55753U 23028N   24099.39519818  .00001431  00000-0  12772-3 0  9999,2 55753  70.0008 210.1143 0003157 274.8095  85.2704 14.98326280 61146,6950.204,96.107,574.264,569.875,0.0
55753.0,STARLINK-5617,PAYLOAD,2024-04-08 14:17:29,14.9833121,0.0003172,70.0007,209.6094,274.4926,85.587,0.00012808,1.436e-05,0.0,0 STARLINK-5617,1 55753U 23028N   24099.59547546  .00001436  00000-0  12808-3 0  9995,2 55753  70.0007 209.6094 0003172 274.4926  85.5870 14.98331210 61178,6950.189,96.107,574.259,569.85,0.0
55753.0,STARLINK-5617,PAYLOAD,2024-04-09 09:31:05,14.98332573,0.0003119,70.0008,207.5897,274.5745,85.5058,2.3696e-05,1.9e-06,0.0,0 STARLINK-5617,1 55753U 23028N   24100.39659688  .00000190  00000-0  23696-4 0  9991,2 55753  70.0008 207.5897 0003119 274.5745  85.5058 14.98332573 61292,6950.185,96.107,574.218,569.882,0.0
55753.0,STARLINK-5617,PAYLOAD,2024-04-10 12:45:22,14.98334541,0.0003012,70.0011,204.7296,269.2292,90.8521,1.5665e-06,-7.4e-07,0.0,0 STARLINK-5617,1 55753U 23028N   24101.53151317 -.00000074  00000-0  15665-5 0  9994,2 55753  70.0011 204.7296 0003012 269.2292  90.8521 14.98334541 61468,6950.179,96.107,574.137,569.95,0.0
55753.0,STARLINK-5617,PAYLOAD,2024-04-11 12:47:24,14.98318567,0.0003,70.0011,202.204,265.449,94.6326,-0.00013542,-1.708e-05,0.0,0 STARLINK-5617,1 55753U 23028N   24102.53292496 -.00001708  00000-0 -13542-3 0  9995,2 55753  70.0011 202.2040 0003000 265.4490  94.6326 14.98318567 61615,6950.228,96.108,574.178,570.008,0.0
55753.0,STARLINK-5617,PAYLOAD,2024-04-11 15:59:41,14.98314288,0.0003185,70.0006,201.8672,264.5715,95.5081,-0.00017705,-2.204e-05,0.0,0 STARLINK-5617,1 55753U 23028N   24102.66645036 -.00002204  00000-0 -17705-3 0  9998,2 55753  70.0006 201.8672 0003185 264.5715  95.5081 14.98314288 61635,6950.241,96.108,574.32,569.893,0.0
55753.0,STARLINK-5617,PAYLOAD,2024-04-12 12:49:26,14.98318141,0.0003229,70.0005,199.6797,266.5083,93.5707,-6.1636e-05,-8.28e-06,0.0,0 STARLINK-5617,1 55753U 23028N   24103.53433231 -.00000828  00000-0 -61636-4 0  9990,2 55753  70.0005 199.6797 0003229 266.5083  93.5707 14.98318141 61764,6950.23,96.108,574.339,569.85,0.0
55753.0,STARLINK-5617,PAYLOAD,2024-04-12 14:25:33,14.98324749,0.0003264,70.0003,199.5113,266.4442,93.6343,-1.8325e-05,-3.12e-06,0.0,0 STARLINK-5617,1 55753U 23028N   24103.60108713 -.00000312  00000-0 -18325-4 0  9997,2 55753  70.0003 199.5113 0003264 266.4442  93.6343 14.98324749 61779,6950.209,96.107,574.343,569.806,0.0
55753.0,STARLINK-5617,PAYLOAD,2024-04-13 12:51:25,14.98337022,0.0003274,70.0007,197.1549,264.4338,95.6447,0.00022756,2.624e-05,0.0,0 STARLINK-5617,1 55753U 23028N   24104.53571389  .00002624  00000-0  22756-3 0  9991,2 55753  70.0007 197.1549 0003274 264.4338  95.6447 14.98337022 61914,6950.171,96.107,574.312,569.761,0.0
55753.0,STARLINK-5617,PAYLOAD,2024-04-13 14:27:33,14.98343787,0.000329,70.0005,196.9866,265.1318,94.9466,0.00024773,2.865e-05,0.0,0 STARLINK-5617,1 55753U 23028N   24104.60246882  .00002865  00000-0  24773-3 0  9994,2 55753  70.0005 196.9866 0003290 265.1318  94.9466 14.98343787 61924,6950.15,96.106,574.302,569.729,0.0
55753.0,STARLINK-5617,PAYLOAD,2024-04-13 16:03:41,14.9835387,0.0003107,70.0006,196.8185,263.5018,96.5787,0.00012038,1.344e-05,0.0,0 STARLINK-5617,1 55753U 23028N   24104.66922467  .00001344  00000-0  12038-3 0  9992,2 55753  70.0006 196.8185 0003107 263.5018  96.5787 14.98353870 61933,6950.119,96.105,574.143,569.825,0.0
55753.0,STARLINK-5617,PAYLOAD,2024-04-14 11:17:18,14.98335539,0.0002741,70.0027,194.8007,256.3616,103.7238,0.00020298,2.33e-05,0.0,0 STARLINK-5617,1 55753U 23028N   24105.47035502  .00002330  00000-0  20298-3 0  9990,2 55753  70.0027 194.8007 0002741 256.3616 103.7238 14.98335539 62052,6950.176,96.107,573.946,570.136,0.0
55753.0,STARLINK-5617,PAYLOAD,2024-04-14 16:05:43,14.98331981,0.0002876,70.0022,194.2956,259.5358,100.5477,0.00013289,1.493e-05,0.0,0 STARLINK-5617,1 55753U 23028N   24105.67063917  .00001493  00000-0  13289-3 0  9994,2 55753  70.0022 194.2956 0002876 259.5358 100.5477 14.98331981 62081,6950.187,96.107,574.051,570.053,0.0
55753.0,STARLINK-5617,PAYLOAD,2024-04-15 12:55:28,14.98333818,0.0002648,70.0024,192.1066,254.9058,105.1808,-9.7444e-05,-1.255e-05,0.0,0 STARLINK-5617,1 55753U 23028N   24106.53851971 -.00001255  00000-0 -97444-4 0  9999,2 55753  70.0024 192.1066 0002648 254.9058 105.1808 14.98333818 62210,6950.181,96.107,573.886,570.206,0.0
55753.0,STARLINK-5617,PAYLOAD,2024-04-15 14:31:35,14.98345607,0.0002635,70.0021,191.9386,250.865,109.2224,-0.00029268,-3.585e-05,0.0,0 STARLINK-5617,1 55753U 23028N   24106.60527621 -.00003585  00000-0 -29268-3 0  9995,2 55753  70.0021 191.9386 0002635 250.8650 109.2224 14.98345607 62225,6950.145,96.106,573.841,570.178,0.0
